{
  "type": "FeatureCollection",
  "features": [
    {
      "type": "Feature",
      "properties": {
        "norad_id": 40118,
        "name": "GAOFEN-2",
        "group": "resource",
        "lat": -61.82339499529801,
        "lon": -135.66335939412417,
        "alt_km": 640.4651694439044,
        "timestamp": "2025-12-26T10:30:49.916454+00:00",
        "meta_object_name": "GAOFEN-2",
        "meta_object_id": "2014-049A",
        "meta_epoch": "2025-12-26T04:33:18.372672",
        "meta_mean_motion": 14.80630231,
        "meta_eccentricity": 0.0008697,
        "meta_inclination": 98.0362,
        "meta_ra_of_asc_node": 59.3804,
        "meta_arg_of_pericenter": 75.9587,
        "meta_mean_anomaly": 284.2592,
        "meta_ephemeris_type": 0,
        "meta_classification_type": "U",
        "meta_norad_cat_id": 40118,
        "meta_element_set_no": 999,
        "meta_rev_at_epoch": 61363,
        "meta_bstar": 0.00010447,
        "meta_mean_motion_dot": 7.49e-06,
        "meta_mean_motion_ddot": 0,
        "tle_line1": "1 40118U 14049A   25360.18979598  .00000749  00000+0  10447-3 0  9992",
        "tle_line2": "2 40118  98.0362  59.3804 0008697  75.9587 284.2592 14.80630231613633"
      },
      "geometry": {
        "type": "Point",
        "coordinates": [
          -135.66335939412417,
          -61.82339499529801
        ]
      }
    },
    {
      "type": "Feature",
      "properties": {
        "norad_id": 40143,
        "name": "YAOGAN-21",
        "group": "resource",
        "lat": 10.973035080926332,
        "lon": -135.44581626504305,
        "alt_km": 501.63481331322055,
        "timestamp": "2025-12-26T10:30:49.916464+00:00",
        "meta_object_name": "YAOGAN-21",
        "meta_object_id": "2014-053A",
        "meta_epoch": "2025-12-26T05:02:50.373600",
        "meta_mean_motion": 15.23809273,
        "meta_eccentricity": 0.0008381,
        "meta_inclination": 97.1735,
        "meta_ra_of_asc_node": 42.937,
        "meta_arg_of_pericenter": 356.7167,
        "meta_mean_anomaly": 3.4015,
        "meta_ephemeris_type": 0,
        "meta_classification_type": "U",
        "meta_norad_cat_id": 40143,
        "meta_element_set_no": 999,
        "meta_rev_at_epoch": 62859,
        "meta_bstar": 0.00023565,
        "meta_mean_motion_dot": 5.613e-05,
        "meta_mean_motion_ddot": 0,
        "tle_line1": "1 40143U 14053A   25360.21030525  .00005613  00000+0  23565-3 0  9997",
        "tle_line2": "2 40143  97.1735  42.9370 0008381 356.7167   3.4015 15.23809273628599"
      },
      "geometry": {
        "type": "Point",
        "coordinates": [
          -135.44581626504305,
          10.973035080926332
        ]
      }
    },
    {
      "type": "Feature",
      "properties": {
        "norad_id": 40275,
        "name": "YAOGAN-22",
        "group": "resource",
        "lat": -12.996897505293717,
        "lon": -38.460022290504696,
        "alt_km": 1201.824260700525,
        "timestamp": "2025-12-26T10:30:49.916474+00:00",
        "meta_object_name": "YAOGAN-22",
        "meta_object_id": "2014-063A",
        "meta_epoch": "2025-12-26T04:03:33.213888",
        "meta_mean_motion": 13.1552327,
        "meta_eccentricity": 0.0006106,
        "meta_inclination": 100.7431,
        "meta_ra_of_asc_node": 143.7787,
        "meta_arg_of_pericenter": 216.1236,
        "meta_mean_anomaly": 143.9464,
        "meta_ephemeris_type": 0,
        "meta_classification_type": "U",
        "meta_norad_cat_id": 40275,
        "meta_element_set_no": 999,
        "meta_rev_at_epoch": 53706,
        "meta_bstar": 4.558e-05,
        "meta_mean_motion_dot": -2.9e-07,
        "meta_mean_motion_ddot": 0,
        "tle_line1": "1 40275U 14063A   25360.16913442 -.00000029  00000+0  45580-4 0  9995",
        "tle_line2": "2 40275 100.7431 143.7787 0006106 216.1236 143.9464 13.15523270537068"
      },
      "geometry": {
        "type": "Point",
        "coordinates": [
          -38.460022290504696,
          -12.996897505293717
        ]
      }
    },
    {
      "type": "Feature",
      "properties": {
        "norad_id": 40298,
        "name": "ASNARO",
        "group": "resource",
        "lat": 14.150280856138714,
        "lon": 74.18179327143531,
        "alt_km": 506.3171084353917,
        "timestamp": "2025-12-26T10:30:49.916485+00:00",
        "meta_object_name": "ASNARO",
        "meta_object_id": "2014-070A",
        "meta_epoch": "2025-12-26T04:07:49.833120",
        "meta_mean_motion": 15.19772206,
        "meta_eccentricity": 0.0005675,
        "meta_inclination": 97.3632,
        "meta_ra_of_asc_node": 75.7906,
        "meta_arg_of_pericenter": 86.5407,
        "meta_mean_anomaly": 273.6477,
        "meta_ephemeris_type": 0,
        "meta_classification_type": "U",
        "meta_norad_cat_id": 40298,
        "meta_element_set_no": 999,
        "meta_rev_at_epoch": 61773,
        "meta_bstar": 0.00067075,
        "meta_mean_motion_dot": 0.00014307,
        "meta_mean_motion_ddot": 0,
        "tle_line1": "1 40298U 14070A   25360.17210455  .00014307  00000+0  67075-3 0  9998",
        "tle_line2": "2 40298  97.3632  75.7906 0005675  86.5407 273.6477 15.19772206617732"
      },
      "geometry": {
        "type": "Point",
        "coordinates": [
          74.18179327143531,
          14.150280856138714
        ]
      }
    },
    {
      "type": "Feature",
      "properties": {
        "norad_id": 40310,
        "name": "YAOGAN-24",
        "group": "resource",
        "lat": 8.129284186060294,
        "lon": 130.43604852735652,
        "alt_km": 642.9620064984056,
        "timestamp": "2025-12-26T10:30:49.916495+00:00",
        "meta_object_name": "YAOGAN-24",
        "meta_object_id": "2014-072A",
        "meta_epoch": "2025-12-26T03:58:10.805376",
        "meta_mean_motion": 14.76203315,
        "meta_eccentricity": 0.0015221,
        "meta_inclination": 98.1232,
        "meta_ra_of_asc_node": 131.331,
        "meta_arg_of_pericenter": 97.8985,
        "meta_mean_anomaly": 262.3952,
        "meta_ephemeris_type": 0,
        "meta_classification_type": "U",
        "meta_norad_cat_id": 40310,
        "meta_element_set_no": 999,
        "meta_rev_at_epoch": 59819,
        "meta_bstar": 0.00011876,
        "meta_mean_motion_dot": 7.7e-06,
        "meta_mean_motion_ddot": 0,
        "tle_line1": "1 40310U 14072A   25360.16540284  .00000770  00000+0  11876-3 0  9997",
        "tle_line2": "2 40310  98.1232 131.3310 0015221  97.8985 262.3952 14.76203315598197"
      },
      "geometry": {
        "type": "Point",
        "coordinates": [
          130.43604852735652,
          8.129284186060294
        ]
      }
    },
    {
      "type": "Feature",
      "properties": {
        "norad_id": 40336,
        "name": "CBERS 4",
        "group": "resource",
        "lat": -80.92626542316049,
        "lon": 171.45880197772954,
        "alt_km": 781.9867172495387,
        "timestamp": "2025-12-26T10:30:49.916505+00:00",
        "meta_object_name": "CBERS 4",
        "meta_object_id": "2014-079A",
        "meta_epoch": "2025-12-26T04:15:29.488032",
        "meta_mean_motion": 14.35522772,
        "meta_eccentricity": 0.0001877,
        "meta_inclination": 98.3285,
        "meta_ra_of_asc_node": 57.7331,
        "meta_arg_of_pericenter": 98.5285,
        "meta_mean_anomaly": 261.6114,
        "meta_ephemeris_type": 0,
        "meta_classification_type": "U",
        "meta_norad_cat_id": 40336,
        "meta_element_set_no": 999,
        "meta_rev_at_epoch": 57913,
        "meta_bstar": 4.1152e-05,
        "meta_mean_motion_dot": 7.6e-07,
        "meta_mean_motion_ddot": 0,
        "tle_line1": "1 40336U 14079A   25360.17742463  .00000076  00000+0  41152-4 0  9996",
        "tle_line2": "2 40336  98.3285  57.7331 0001877  98.5285 261.6114 14.35522772579133"
      },
      "geometry": {
        "type": "Point",
        "coordinates": [
          171.45880197772954,
          -80.92626542316049
        ]
      }
    },
    {
      "type": "Feature",
      "properties": {
        "norad_id": 40362,
        "name": "YAOGAN-26",
        "group": "resource",
        "lat": -58.35662827430309,
        "lon": 12.237537798450482,
        "alt_km": 451.8197032786675,
        "timestamp": "2025-12-26T10:30:49.916515+00:00",
        "meta_object_name": "YAOGAN-26",
        "meta_object_id": "2014-088A",
        "meta_epoch": "2025-12-26T04:31:52.143744",
        "meta_mean_motion": 15.39784198,
        "meta_eccentricity": 0.0004246,
        "meta_inclination": 97.0649,
        "meta_ra_of_asc_node": 0.3866,
        "meta_arg_of_pericenter": 347.0621,
        "meta_mean_anomaly": 13.0516,
        "meta_ephemeris_type": 0,
        "meta_classification_type": "U",
        "meta_norad_cat_id": 40362,
        "meta_element_set_no": 999,
        "meta_rev_at_epoch": 61101,
        "meta_bstar": 0.00074153,
        "meta_mean_motion_dot": 0.0002938,
        "meta_mean_motion_ddot": 0,
        "tle_line1": "1 40362U 14088A   25360.18879796  .00029380  00000+0  74153-3 0  9991",
        "tle_line2": "2 40362  97.0649   0.3866 0004246 347.0621  13.0516 15.39784198611014"
      },
      "geometry": {
        "type": "Point",
        "coordinates": [
          12.237537798450482,
          -58.35662827430309
        ]
      }
    }
  ]
}